NORAD_CAT_ID,OBJECT_NAME,OBJECT_TYPE,EPOCH,MEAN_MOTION,ECCENTRICITY,INCLINATION,RA_OF_ASC_NODE,ARG_OF_PERICENTER,MEAN_ANOMALY,BSTAR,MEAN_MOTION_DOT,MEAN_MOTION_DDOT,TLE_LINE0,TLE_LINE1,TLE_LINE2,SEMIMAJOR_AXIS,PERIOD,APOGEE,PERIGEE,DECAYED
49145.0,STARLINK-3119,PAYLOAD,2023-02-17 18:14:18,14.98328456,0.0003233,69.9983,188.1125,268.4541,91.6248,-0.00020243,-2.507e-05,0.0,0 STARLINK-3119,1 49145U 21082R   23048.75993083 -.00002507  00000-0 -20243-3 0  9997,2 49145  69.9983 188.1125 0003233 268.4541  91.6248 14.98328456 79800,6950.198,96.107,574.31,569.816,0.0
49145.0,STARLINK-3119,PAYLOAD,2023-02-18 15:04:02,14.98332878,0.0003294,69.9983,185.9247,266.7577,93.3206,-7.595e-05,-9.99e-06,0.0,0 STARLINK-3119,1 49145U 21082R   23049.62780482 -.00000999  00000-0 -75950-4 0  9990,2 49145  69.9983 185.9247 0003294 266.7577  93.3206 14.98332878 79937,6950.184,96.107,574.338,569.76,0.0
49145.0,STARLINK-3119,PAYLOAD,2023-02-18 16:40:10,14.98335627,0.000325,69.9982,185.7563,269.045,91.0337,-6.1615e-05,-8.28e-06,0.0,0 STARLINK-3119,1 49145U 21082R   23049.69456254 -.00000828  00000-0 -61615-4 0  9998,2 49145  69.9982 185.7563 0003250 269.0450  91.0337 14.98335627 79949,6950.175,96.107,574.299,569.782,0.0
49145.0,STARLINK-3119,PAYLOAD,2023-02-19 15:06:03,14.98325117,0.0003097,69.9994,183.4,268.4971,91.5834,0.00018293,2.09e-05,0.0,0 STARLINK-3119,1 49145U 21082R   23050.62920477  .00002090  00000-0  18293-3 0  9990,2 49145  69.9994 183.4000 0003097 268.4971  91.5834 14.98325117 80080,6950.208,96.107,574.225,569.921,0.0
49145.0,STARLINK-3119,PAYLOAD,2023-02-19 18:18:19,14.98328571,0.0003048,69.9996,183.0639,269.5406,90.5404,0.00022265,2.564e-05,0.0,0 STARLINK-3119,1 49145U 21082R   23050.76272248  .00002564  00000-0  22265-3 0  9991,2 49145  69.9996 183.0639 0003048 269.5406  90.5404 14.98328571 80109,6950.197,96.107,574.181,569.944,0.0
49145.0,STARLINK-3119,PAYLOAD,2023-02-20 13:31:56,14.98328231,0.0003043,69.9996,181.0438,269.6262,90.4548,-1.1074e-06,-1.06e-06,0.0,0 STARLINK-3119,1 49145U 21082R   23051.56384946 -.00000106  00000-0 -11074-5 0  9999,2 49145  69.9996 181.0438 0003043 269.6262  90.4548 14.98328231 80224,6950.198,96.107,574.178,569.948,0.0
49145.0,STARLINK-3119,PAYLOAD,2023-02-21 07:09:24,14.98334253,0.0003063,69.9998,179.1914,267.7631,92.3178,9.3619e-05,1.024e-05,0.0,0 STARLINK-3119,1 49145U 21082R   23052.29820155  .00001024  00000-0  93619-4 0  9999,2 49145  69.9998 179.1914 0003063 267.7631  92.3178 14.98334253 80337,6950.18,96.107,574.174,569.916,0.0
49145.0,STARLINK-3119,PAYLOAD,2023-02-21 15:10:04,14.98338756,0.0003077,69.9997,178.3506,267.1429,92.9378,0.00011279,1.253e-05,0.0,0 STARLINK-3119,1 49145U 21082R   23052.63199735  .00001253  00000-0  11279-3 0  9995,2 49145  69.9997 178.3506 0003077 267.1429  92.9378 14.98338756 80383,6950.166,96.106,574.169,569.892,0.0
49145.0,STARLINK-3119,PAYLOAD,2023-02-21 18:22:20,14.98342133,0.000315,69.9995,178.0137,269.0166,91.0632,0.0001014,1.117e-05,0.0,0 STARLINK-3119,1 49145U 21082R   23052.76551490  .00001117  00000-0  10140-3 0  9994,2 49145  69.9995 178.0137 0003150 269.0166  91.0632 14.98342133 80409,6950.155,96.106,574.21,569.831,0.0
49145.0,STARLINK-3119,PAYLOAD,2023-02-22 11:59:50,14.98321528,0.0002435,69.9999,176.1624,264.4624,95.6257,0.00013207,1.483e-05,0.0,0 STARLINK-3119,1 49145U 21082R   23053.49988681  .00001483  00000-0  13207-3 0  9994,2 49145  69.9999 176.1624 0002435 264.4624  95.6257 14.98321528 80516,6950.219,96.108,573.776,570.392,0.0
49145.0,STARLINK-3119,PAYLOAD,2023-02-23 00:48:54,14.983321,0.0002936,70.0,174.8158,268.5852,91.497,4.631e-06,-3.8e-07,0.0,0 STARLINK-3119,1 49145U 21082R   23054.03396230 -.00000038  00000-0  46310-5 0  9997,2 49145  70.0000 174.8158 0002936 268.5852  91.4970 14.98332100 80595,6950.186,96.107,574.092,570.011,0.0
49145.0,STARLINK-3119,PAYLOAD,2023-02-23 12:01:50,14.98329424,0.000287,70.0004,173.6379,269.6342,90.4488,2.023e-05,1.48e-06,0.0,0 STARLINK-3119,1 49145U 21082R   23054.50128321  .00000148  00000-0  20230-4 0  9996,2 49145  70.0004 173.6379 0002870 269.6342  90.4488 14.98329424 80660,6950.195,96.107,574.054,570.065,0.0
49145.0,STARLINK-3119,PAYLOAD,2023-02-23 15:14:06,14.98330444,0.0002729,70.0003,173.3008,264.0914,95.9934,1.639e-05,1.03e-06,0.0,0 STARLINK-3119,1 49145U 21082R   23054.63480233  .00000103  00000-0  16390-4 0  9996,2 49145  70.0003 173.3008 0002729 264.0914  95.9934 14.98330444 80684,6950.192,96.107,573.953,570.16,0.0
49145.0,STARLINK-3119,PAYLOAD,2023-02-24 00:50:54,14.98361194,0.0002908,70.0002,172.291,273.7879,86.2948,-0.00045835,-5.562e-05,0.0,0 STARLINK-3119,1 49145U 21082R   23055.03535127 -.00005562  00000-0 -45835-3 0  9995,2 49145  70.0002 172.2910 0002908 273.7879  86.2948 14.98361194 80740,6950.096,96.105,573.983,569.94,0.0
49145.0,STARLINK-3119,PAYLOAD,2023-02-24 07:15:27,14.98329737,0.0002724,70.0001,171.6181,268.1838,91.9009,7.9573e-05,8.57e-06,0.0,0 STARLINK-3119,1 49145U 21082R   23055.30240055  .00000857  00000-0  79573-4 0  9995,2 49145  70.0001 171.6181 0002724 268.1838  91.9009 14.98329737 80783,6950.194,96.107,573.952,570.165,0.0
49145.0,STARLINK-3119,PAYLOAD,2023-02-24 12:03:51,14.98329552,0.0002731,70.0001,171.1131,268.2309,91.8537,7.2237e-05,7.69e-06,0.0,0 STARLINK-3119,1 49145U 21082R   23055.50268094  .00000769  00000-0  72237-4 0  9992,2 49145  70.0001 171.1131 0002731 268.2309  91.8537 14.98329552 80819,6950.194,96.107,573.957,570.161,0.0
49145.0,STARLINK-3119,PAYLOAD,2023-02-24 16:52:15,14.9833117,0.0002716,70.0002,170.6082,268.1416,91.9432,8.7896e-05,9.56e-06,0.0,0 STARLINK-3119,1 49145U 21082R   23055.70295957  .00000956  00000-0  87896-4 0  9997,2 49145  70.0002 170.6082 0002716 268.1416  91.9432 14.98331170 80847,6950.189,96.107,573.942,570.167,0.0
49145.0,STARLINK-3119,PAYLOAD,2023-02-25 07:17:29,14.98319859,0.0002911,70.0021,169.0932,266.7864,93.2962,-9.0181e-06,-2.01e-06,0.0,0 STARLINK-3119,1 49145U 21082R   23056.30381038 -.00000201  00000-0 -90181-5 0  9997,2 49145  70.0021 169.0932 0002911 266.7864  93.2962 14.98319859 80935,6950.224,96.108,574.112,570.066,0.0
49145.0,STARLINK-3119,PAYLOAD,2023-02-25 12:05:53,14.9832025,0.0002797,70.0004,168.588,266.5563,93.5276,-5.0858e-05,-7e-06,0.0,0 STARLINK-3119,1 49145U 21082R   23056.50409255 -.00000700  00000-0 -50858-4 0  9991,2 49145  70.0004 168.5880 0002797 266.5563  93.5276 14.98320250 80969,6950.223,96.108,574.032,570.144,0.0
49145.0,STARLINK-3119,PAYLOAD,2023-02-25 16:54:17,14.98321341,0.0003022,69.9996,168.0824,269.7511,90.3301,-6.4706e-05,-8.65e-06,0.0,0 STARLINK-3119,1 49145U 21082R   23056.70437325 -.00000865  00000-0 -64706-4 0  9991,2 49145  69.9996 168.0824 0003022 269.7511  90.3301 14.98321341 80998,6950.22,96.108,574.185,569.984,0.0
49145.0,STARLINK-3119,PAYLOAD,2023-02-26 05:43:21,14.98331961,0.0003031,69.9993,166.7367,270.0206,90.0605,8.68e-05,9.43e-06,0.0,0 STARLINK-3119,1 49145U 21082R   23057.23844378  .00000943  00000-0  86800-4 0  9994,2 49145  69.9993 166.7367 0003031 270.0206  90.0605 14.98331961 81071,6950.187,96.107,574.158,569.945,0.0
49145.0,STARLINK-3119,PAYLOAD,2023-02-26 08:55:37,14.98337517,0.0003322,69.9999,166.4002,269.9224,90.1554,0.0001444,1.631e-05,0.0,0 STARLINK-3119,1 49145U 21082R   23057.37195714  .00001631  00000-0  14440-3 0  9997,2 49145  69.9999 166.4002 0003322 269.9224  90.1554 14.98337517 81099,6950.17,96.107,574.343,569.726,0.0
49145.0,STARLINK-3119,PAYLOAD,2023-02-26 10:31:45,14.98338614,0.0003271,69.9999,166.232,270.2125,89.8659,0.00014522,1.641e-05,0.0,0 STARLINK-3119,1 49145U 21082R   23057.43871640  .00001641  00000-0  14522-3 0  9995,2 49145  69.9999 166.2320 0003271 270.2125  89.8659 14.98338614 81100,6950.166,96.106,574.305,569.758,0.0
49145.0,STARLINK-3119,PAYLOAD,2023-02-26 16:56:16,14.98351621,0.0003195,69.9993,165.5571,267.8619,92.2175,0.00025813,2.99e-05,0.0,0 STARLINK-3119,1 49145U 21082R   23057.70574287  .00002990  00000-0  25813-3 0  9995,2 49145  69.9993 165.5571 0003195 267.8619  92.2175 14.98351621 81147,6950.126,96.106,574.212,569.77,0.0
49145.0,STARLINK-3119,PAYLOAD,2023-02-27 05:45:22,14.98324641,0.0003083,69.9991,164.2104,264.3435,95.7372,0.00019358,2.217e-05,0.0,0 STARLINK-3119,1 49145U 21082R   23058.23984178  .00002217  00000-0  19358-3 0  9997,2 49145  69.9991 164.2104 0003083 264.3435  95.7372 14.98324641 81225,6950.209,96.107,574.217,569.932,0.0
49145.0,STARLINK-3119,PAYLOAD,2023-02-27 07:21:30,14.9832486,0.0003116,69.9989,164.0422,264.2357,95.8447,0.00020081,2.303e-05,0.0,0 STARLINK-3119,1 49145U 21082R   23058.30660213  .00002303  00000-0  20081-3 0  9997,2 49145  69.9989 164.0422 0003116 264.2357  95.8447 14.98324860 81230,6950.209,96.107,574.239,569.908,0.0
49145.0,STARLINK-3119,PAYLOAD,2023-02-27 15:22:10,14.98332211,0.0002757,70.0004,163.2003,258.2513,101.8337,0.00021618,2.487e-05,0.0,0 STARLINK-3119,1 49145U 21082R   23058.64039960  .00002487  00000-0  21618-3 0  9993,2 49145  70.0004 163.2003 0002757 258.2513 101.8337 14.98332211 81284,6950.186,96.107,573.967,570.135,0.0
49145.0,STARLINK-3119,PAYLOAD,2023-02-28 05:47:22,14.98366864,0.0002184,70.0017,161.6862,260.1252,99.966,-0.00039314,-4.785e-05,0.0,0 STARLINK-3119,1 49145U 21082R   23059.24122702 -.00004785  00000-0 -39314-3 0  9994,2 49145  70.0017 161.6862 0002184 260.1252  99.9660 14.98366864 81376,6950.079,96.105,573.462,570.426,0.0
49145.0,STARLINK-3119,PAYLOAD,2023-02-28 13:48:02,14.98343815,0.0002474,70.0017,160.8444,244.1284,115.962,-0.00016572,-2.07e-05,0.0,0 STARLINK-3119,1 49145U 21082R   23059.57502797 -.00002070  00000-0 -16572-3 0  9992,2 49145  70.0017 160.8444 0002474 244.1284 115.9620 14.98343815 81424,6950.15,96.106,573.735,570.296,0.0
49145.0,STARLINK-3119,PAYLOAD,2023-02-28 15:24:10,14.9834501,0.0002408,70.002,160.6761,241.4458,118.6458,-0.00017766,-2.213e-05,0.0,0 STARLINK-3119,1 49145U 21082R   23059.64178739 -.00002213  00000-0 -17766-3 0  9990,2 49145  70.0020 160.6761 0002408 241.4458 118.6458 14.98345010 81437,6950.146,96.106,573.685,570.338,0.0
